[{"OBJECT_NAME":"STARLINK-4693","OBJECT_ID":"2022-104T","EPOCH":"2026-03-09T17:26:59.625600","MEAN_MOTION":15.08839187,"ECCENTRICITY":0.00012731,"INCLINATION":53.2167,"RA_OF_ASC_NODE":243.7309,"ARG_OF_PERICENTER":93.7657,"MEAN_ANOMALY":266.348,"EPHEMERIS_TYPE":0,"CLASSIFICATION_TYPE":"U","NORAD_CAT_ID":53605,"ELEMENT_SET_NO":999,"REV_AT_EPOCH":19562,"BSTAR":3.2503433e-5,"MEAN_MOTION_DOT":2.29e-6,"MEAN_MOTION_DDOT":0},{"OBJECT_NAME":"COSMOS 1275 DEB","OBJECT_ID":"1981-053RH","EPOCH":"2026-03-08T19:02:02.535360","MEAN_MOTION":15.08606043,"ECCENTRICITY":0.00097404,"INCLINATION":83.3308,"RA_OF_ASC_NODE":196.5935,"ARG_OF_PERICENTER":282.896,"MEAN_ANOMALY":77.1182,"EPHEMERIS_TYPE":0,"CLASSIFICATION_TYPE":"U","NORAD_CAT_ID":42145,"ELEMENT_SET_NO":999,"REV_AT_EPOCH":64889,"BSTAR":0.0090120528,"MEAN_MOTION_DOT":0.00143721,"MEAN_MOTION_DDOT":0}]
